     2.01           GLONASS NAV DATA                        RINEX VERSION / TYPE
CCRINEXG V1.4 UX    CDDIS               10-JUN-25 12:53     PGM / RUN BY / DATE 
IGS BROADCAST EPHEMERIS FILE                                COMMENT             
teqc  2019Feb25     GPS Operator        20250610  1:03:     COMMENT             
  2025     6    10   -0.139698386192D-08                    CORR TO SYSTEM TIME 
    18                                                      LEAP SECONDS        
                                                            END OF HEADER       
 5 25  6 10 11 15  0.0 0.151184387505D-03 0.909494701773D-12 0.401400000000D+05
    0.193336245117D+05-0.143501758575D+01 0.465661287308D-08 0.000000000000D+00
    0.120369262695D+05-0.678296089172D+00 0.000000000000D+00 0.100000000000D+01
    0.115187924805D+05 0.311866855621D+01 0.186264514923D-08 0.000000000000D+00
10 25  6 10 11 15  0.0-0.337091274560D-03-0.454747350886D-11 0.396000000000D+05
    0.189596230469D+05-0.220078468323D+00 0.186264514923D-08 0.000000000000D+00
   -0.170884633789D+05-0.209808349609D-02 0.186264514923D-08-0.700000000000D+01
   -0.116488281250D+04-0.355204391480D+01 0.186264514923D-08 0.000000000000D+00
11 25  6 10 11 15  0.0 0.168737024069D-04-0.909494701773D-12 0.396000000000D+05
    0.910122607422D+04 0.144079113007D+01 0.279396772385D-08 0.000000000000D+00
   -0.183395058594D+05-0.150708484650D+01 0.186264514923D-08 0.000000000000D+00
    0.152153735352D+05-0.268267250061D+01 0.000000000000D+00 0.000000000000D+00
12 25  6 10 11 15  0.0 0.553103163838D-04 0.909494701773D-12 0.396000000000D+05
   -0.787700048828D+04 0.231208133697D+01 0.186264514923D-08 0.000000000000D+00
   -0.776571191406D+04-0.212787723541D+01 0.931322574616D-09-0.100000000000D+01
    0.230140190430D+05 0.741500854492D-01-0.186264514923D-08 0.000000000000D+00
13 25  6 10 11 15  0.0-0.597890466452D-04-0.000000000000D+00 0.396000000000D+05
   -0.178960932617D+05 0.179289913178D+01-0.000000000000D+00 0.000000000000D+00
    0.542080859375D+04-0.156132698059D+01-0.000000000000D+00-0.200000000000D+01
    0.173410996094D+05 0.233749961853D+01-0.279396772385D-08 0.000000000000D+00
14 25  6 10 11 15  0.0 0.286148861051D-04 0.000000000000D+00 0.396000000000D+05
   -0.184641020508D+05 0.548009872437D-01-0.186264514923D-08 0.000000000000D+00
    0.176150922852D+05 0.131295204163D+00-0.186264514923D-08-0.700000000000D+01
   -0.347878417969D+03 0.355283546448D+01-0.186264514923D-08 0.000000000000D+00
18 25  6 10 11 15  0.0 0.206149183214D-03 0.181898940355D-11 0.396000000000D+05
    0.227353466797D+04 0.584821701050D-01 0.000000000000D+00 0.000000000000D+00
    0.247717197266D+05-0.814355850220D+00-0.279396772385D-08-0.300000000000D+01
   -0.573898681641D+04-0.348216152191D+01 0.931322574615D-09 0.000000000000D+00
19 25  6 10 11 15  0.0-0.100815668702D-04-0.545696821064D-11 0.396000000000D+05
    0.930045703125D+04 0.408035278320D+00 0.279396772385D-08 0.000000000000D+00
    0.207514755859D+05 0.152882671356D+01-0.186264514923D-08 0.300000000000D+01
    0.114900454102D+05-0.309370040894D+01 0.931322574616D-09 0.000000000000D+00
20 25  6 10 11 15  0.0-0.131553970277D-03-0.000000000000D+00 0.396000000000D+05
    0.109885166016D+05 0.555454254150D+00 0.465661287308D-08 0.000000000000D+00
    0.397158740234D+04 0.305932140350D+01-0.000000000000D+00 0.200000000000D+01
    0.226814272461D+05-0.801622390747D+00 0.000000000000D+00 0.000000000000D+00
21 25  6 10 11 15  0.0-0.209470279515D-03-0.363797880709D-11 0.396000000000D+05
    0.652321337891D+04 0.445409774780D+00 0.279396772385D-08 0.000000000000D+00
   -0.141915844727D+05 0.273110103607D+01 0.931322574616D-09 0.400000000000D+01
    0.201709907227D+05 0.177392005920D+01-0.000000000000D+00 0.000000000000D+00
22 25  6 10 11 15  0.0 0.692456960678D-04 0.181898940355D-11 0.396000000000D+05
   -0.241528027344D+04-0.464105606079D-01-0.000000000000D+00 0.200000000000D+01
   -0.250155722656D+05 0.612940788269D+00 0.279396772385D-08-0.300000000000D+01
    0.436668066406D+04 0.350366115570D+01-0.000000000000D+00 0.000000000000D+00
23 25  6 10 11 15  0.0-0.157255679369D-03-0.909494701773D-12 0.405300000000D+05
   -0.902034814453D+04-0.474457740784D+00-0.279396772385D-08 0.000000000000D+00
   -0.213188530273D+05-0.140463542938D+01 0.186264514923D-08 0.300000000000D+01
   -0.107285742188D+05 0.319362735748D+01-0.000000000000D+00 0.000000000000D+00
 2 25  6 10 11 45  0.0-0.308202579617D-04 0.000000000000D+00 0.414000000000D+05
   -0.250952744141D+05-0.181536674500D+00-0.372529029846D-08 0.000000000000D+00
   -0.424704589844D+04 0.168666839600D+00 0.931322574616D-09-0.400000000000D+01
    0.111726562500D+04-0.359020805359D+01-0.279396772385D-08 0.000000000000D+00
 3 25  6 10 11 45  0.0 0.123996287584D-03 0.000000000000D+00 0.414000000000D+05
   -0.177931044922D+05-0.238309288025D+01-0.000000000000D+00 0.000000000000D+00
    0.511743164062D+04-0.297292709351D+00-0.000000000000D+00 0.500000000000D+01
    0.175665566406D+05-0.233851623535D+01-0.279396772385D-08 0.000000000000D+00
 4 25  6 10 11 45  0.0 0.295478850603D-03 0.181898940355D-11 0.414000000000D+05
   -0.125048193359D+04-0.311384296417D+01 0.279396772385D-08 0.000000000000D+00
    0.105859624023D+05-0.602190971374D+00-0.931322574616D-09 0.600000000000D+01
    0.232040634766D+05 0.106075286865D+00-0.931322574616D-09 0.000000000000D+00
 5 25  6 10 11 45  0.0 0.151186250150D-03 0.909494701773D-12 0.423600000000D+05
    0.160384433594D+05-0.220355510712D+01 0.372529029846D-08 0.000000000000D+00
    0.108665322266D+05-0.581830024719D+00-0.931322574616D-09 0.100000000000D+01
    0.166153852539D+05 0.250751590729D+01 0.931322574616D-09 0.000000000000D+00
 6 25  6 10 11 45  0.0-0.218329951167D-03-0.909494701773D-12 0.423600000000D+05
    0.252158271484D+05 0.472102165222D+00 0.279396772385D-08 0.000000000000D+00
    0.205701708984D+04-0.110067367554D+00-0.000000000000D+00-0.400000000000D+01
   -0.331016650391D+04 0.353928947449D+01 0.279396772385D-08 0.000000000000D+00
10 25  6 10 11 45  0.0-0.337099656463D-03-0.454747350886D-11 0.414000000000D+05
    0.180514248047D+05-0.753367424011D+00 0.186264514923D-08 0.000000000000D+00
   -0.164826132812D+05 0.695304870605D+00 0.931322574616D-09-0.700000000000D+01
   -0.743152539062D+04-0.336588954925D+01 0.279396772385D-08 0.000000000000D+00
11 25  6 10 11 45  0.0 0.168764963746D-04-0.909494701773D-12 0.414000000000D+05
    0.110640434570D+05 0.745440483093D+00 0.279396772385D-08 0.000000000000D+00
   -0.207556694336D+05-0.113334369659D+01 0.186264514923D-08 0.000000000000D+00
    0.986064941406D+04-0.322843742371D+01 0.931322574616D-09 0.000000000000D+00
12 25  6 10 11 45  0.0 0.553112477064D-04 0.909494701773D-12 0.414000000000D+05
   -0.404369531250D+04 0.191552066803D+01 0.186264514923D-08 0.000000000000D+00
   -0.118406308594D+05-0.235959815979D+01 0.931322574616D-09-0.100000000000D+01
    0.222590043945D+05-0.907623291016D+00-0.931322574616D-09 0.000000000000D+00
13 25  6 10 11 45  0.0-0.597899779677D-04-0.000000000000D+00 0.414000000000D+05
   -0.145786455078D+05 0.184759998322D+01 0.000000000000D+00 0.000000000000D+00
    0.204410644531D+04-0.217396926880D+01-0.000000000000D+00-0.200000000000D+01
    0.208233876953D+05 0.150657081604D+01-0.279396772385D-08 0.000000000000D+00
14 25  6 10 11 45  0.0 0.286158174276D-04 0.000000000000D+00 0.414000000000D+05
   -0.178310346680D+05 0.615084648132D+00-0.186264514923D-08 0.000000000000D+00
    0.172584663086D+05-0.550074577332D+00-0.186264514923D-08-0.700000000000D+01
    0.597815869141D+04 0.343053627014D+01-0.279396772385D-08 0.000000000000D+00
15 25  6 10 11 45  0.0 0.674407929182D-04-0.909494701773D-12 0.420900000000D+05
   -0.100349062500D+05-0.896406173706D+00-0.279396772385D-08 0.000000000000D+00
    0.205406875000D+05 0.127235412598D+01-0.186264514923D-08 0.000000000000D+00
   -0.113040136719D+05 0.309975242615D+01-0.931322574615D-09 0.000000000000D+00
19 25  6 10 11 45  0.0-0.100918114185D-04-0.545696821064D-11 0.414000000000D+05
    0.100399497070D+05 0.372230529785D+00 0.186264514923D-08 0.000000000000D+00
    0.227492578125D+05 0.681194305420D+00-0.186264514923D-08 0.300000000000D+01
    0.554778173828D+04-0.346579265594D+01 0.931322574615D-09 0.000000000000D+00
20 25  6 10 11 45  0.0-0.131554901600D-03-0.000000000000D+00 0.414000000000D+05
    0.123391816406D+05 0.919334411621D+00 0.372529029846D-08 0.000000000000D+00
    0.914136181641D+04 0.263990688324D+01-0.931322574616D-09 0.200000000000D+01
    0.203812324219D+05-0.173749542236D+01 0.000000000000D+00 0.000000000000D+00
21 25  6 10 11 45  0.0-0.209475867450D-03-0.363797880709D-11 0.414000000000D+05
    0.778476269531D+04 0.958320617676D+00 0.372529029846D-08 0.000000000000D+00
   -0.904223828125D+04 0.293898963928D+01 0.000000000000D+00 0.400000000000D+01
    0.225432651367D+05 0.844748497009D+00 0.000000000000D+00 0.000000000000D+00
22 25  6 10 11 45  0.0 0.692494213581D-04 0.181898940355D-11 0.414000000000D+05
   -0.221646142578D+04 0.300681114197D+00 0.931322574616D-09 0.200000000000D+01
   -0.231819838867D+05 0.139871692657D+01 0.186264514923D-08-0.300000000000D+01
    0.104230117188D+05 0.318194675446D+01-0.000000000000D+00 0.000000000000D+00
23 25  6 10 11 45  0.0-0.157257542014D-03-0.909494701773D-12 0.414000000000D+05
   -0.985667822266D+04-0.411756515503D+00-0.931322574616D-09 0.000000000000D+00
   -0.230679970703D+05-0.531715393066D+00 0.279396772385D-08 0.300000000000D+01
   -0.463972021484D+04 0.352787494659D+01-0.000000000000D+00 0.000000000000D+00
